STARLINK-35492          
1 65926U 25225S   25303.25002315 -.01973178  00000+0 -25031-1 0  9994
2 65926  53.1591  54.3726 0001238  77.9722  66.0922 15.62176849  4434
STARLINK-35494          
1 65927U 25225T   25303.25002315 -.01981612  00000+0 -25147-1 0  9995
2 65927  53.1596  54.3634 0001263  75.1494  72.7461 15.62182662  4434
STARLINK-35493          
1 65928U 25225U   25303.25002315 -.01979741  00000+0 -25122-1 0  9999
2 65928  53.1595  54.3553 0001214  76.6024  75.1273 15.62181377  4389
STARLINK-35175          
1 65929U 25225V   25303.25002315 -.01974061  00000+0 -25043-1 0  9992
2 65929  53.1592  54.3522 0001199  76.9077  76.7394 15.62177995  4434
STARLINK-35513          
1 65930U 25225W   25303.25002315 -.01977999  00000+0 -25098-1 0  9997
2 65930  53.1594  54.3595 0001195  75.8621  73.9522 15.62179466  4434
STARLINK-35526          
1 65931U 25225X   25303.25002315 -.01973758  00000+0 -25038-1 0  9991
2 65931  53.1592  54.3475 0001315  81.8343  73.7311 15.62177412  4435
STARLINK-35436          
1 65932U 25225Y   25303.25002315 -.01974451  00000+0 -25048-1 0  9994
2 65932  53.1592  54.3442 0001229  74.4866  82.9938 15.62178299  4433
STARLINK-35192          
1 65933U 25225Z   25303.25002315 -.01980054  00000+0 -25126-1 0  9998
2 65933  53.1591  54.3318 0001217  85.9225  77.3085 15.62181836  4441
STARLINK-33921          
1 65934U 25225AA  25303.25002315 -.01973952  00000+0 -25041-1 0  9994
2 65934  53.1590  54.3402 0001274  78.0383  81.3600 15.62177652  4423
STARLINK-35155          
1 65935U 25225AB  25303.25002315 -.01978459  00000+0 -25104-1 0  9992
2 65935  53.1590  54.3360 0001197  79.6380  81.6754 15.62180902  4420
STARLINK-35161          
1 65936U 25225AC  25303.25002315 -.01977127  00000+0 -25086-1 0  9993
2 65936  53.1592  54.3284 0001209  78.4635  86.6856 15.62178874  4447
STARLINK-35473          
1 65937U 25225AD  25303.25002315 -.01979764  00000+0 -25122-1 0  9994
2 65937  53.1591  54.3248 0001207  87.2816  79.7834 15.62181650  4449
