CCSDS_OMM_VERS = 2.0
CREATION_DATE  = 
ORIGINATOR     = 

OBJECT_NAME    = STARLINK-35492
OBJECT_ID      = 2025-225S
CENTER_NAME    = EARTH
REF_FRAME      = TEME
TIME_SYSTEM    = UTC
MEAN_ELEMENT_THEORY = SGP/SGP4

EPOCH          = 2025-10-30T06:00:02.000160
MEAN_MOTION    = 15.62176849
ECCENTRICITY   = .00012389
INCLINATION    = 53.1591
RA_OF_ASC_NODE = 54.3726
ARG_OF_PERICENTER = 77.9722
MEAN_ANOMALY   = 66.0922

EPHEMERIS_TYPE = 0
CLASSIFICATION_TYPE = U
NORAD_CAT_ID   = 65926
ELEMENT_SET_NO = 999
REV_AT_EPOCH   = 443
BSTAR          = -.25030994E-1
MEAN_MOTION_DOT = -.1973178E-1
MEAN_MOTION_DDOT = 0

CCSDS_OMM_VERS = 2.0
CREATION_DATE  = 
ORIGINATOR     = 

OBJECT_NAME    = STARLINK-35494
OBJECT_ID      = 2025-225T
CENTER_NAME    = EARTH
REF_FRAME      = TEME
TIME_SYSTEM    = UTC
MEAN_ELEMENT_THEORY = SGP/SGP4

EPOCH          = 2025-10-30T06:00:02.000160
MEAN_MOTION    = 15.62182662
ECCENTRICITY   = .00012631
INCLINATION    = 53.1596
RA_OF_ASC_NODE = 54.3634
ARG_OF_PERICENTER = 75.1494
MEAN_ANOMALY   = 72.7461

EPHEMERIS_TYPE = 0
CLASSIFICATION_TYPE = U
NORAD_CAT_ID   = 65927
ELEMENT_SET_NO = 999
REV_AT_EPOCH   = 443
BSTAR          = -.25146823E-1
MEAN_MOTION_DOT = -.1981612E-1
MEAN_MOTION_DDOT = 0

CCSDS_OMM_VERS = 2.0
CREATION_DATE  = 
ORIGINATOR     = 

OBJECT_NAME    = STARLINK-35493
OBJECT_ID      = 2025-225U
CENTER_NAME    = EARTH
REF_FRAME      = TEME
TIME_SYSTEM    = UTC
MEAN_ELEMENT_THEORY = SGP/SGP4

EPOCH          = 2025-10-30T06:00:02.000160
MEAN_MOTION    = 15.62181377
ECCENTRICITY   = .00012141
INCLINATION    = 53.1595
RA_OF_ASC_NODE = 54.3553
ARG_OF_PERICENTER = 76.6024
MEAN_ANOMALY   = 75.1273

EPHEMERIS_TYPE = 0
CLASSIFICATION_TYPE = U
NORAD_CAT_ID   = 65928
ELEMENT_SET_NO = 999
REV_AT_EPOCH   = 438
BSTAR          = -.25121571E-1
MEAN_MOTION_DOT = -.1979741E-1
MEAN_MOTION_DDOT = 0

CCSDS_OMM_VERS = 2.0
CREATION_DATE  = 
ORIGINATOR     = 

OBJECT_NAME    = STARLINK-35175
OBJECT_ID      = 2025-225V
CENTER_NAME    = EARTH
REF_FRAME      = TEME
TIME_SYSTEM    = UTC
MEAN_ELEMENT_THEORY = SGP/SGP4

EPOCH          = 2025-10-30T06:00:02.000160
MEAN_MOTION    = 15.62177995
ECCENTRICITY   = .00011996
INCLINATION    = 53.1592
RA_OF_ASC_NODE = 54.3522
ARG_OF_PERICENTER = 76.9077
MEAN_ANOMALY   = 76.7394

EPHEMERIS_TYPE = 0
CLASSIFICATION_TYPE = U
NORAD_CAT_ID   = 65929
ELEMENT_SET_NO = 999
REV_AT_EPOCH   = 443
BSTAR          = -.25043015E-1
MEAN_MOTION_DOT = -.1974061E-1
MEAN_MOTION_DDOT = 0

CCSDS_OMM_VERS = 2.0
CREATION_DATE  = 
ORIGINATOR     = 

OBJECT_NAME    = STARLINK-35513
OBJECT_ID      = 2025-225W
CENTER_NAME    = EARTH
REF_FRAME      = TEME
TIME_SYSTEM    = UTC
MEAN_ELEMENT_THEORY = SGP/SGP4

EPOCH          = 2025-10-30T06:00:02.000160
MEAN_MOTION    = 15.62179466
ECCENTRICITY   = .0001195
INCLINATION    = 53.1594
RA_OF_ASC_NODE = 54.3595
ARG_OF_PERICENTER = 75.8621
MEAN_ANOMALY   = 73.9522

EPHEMERIS_TYPE = 0
CLASSIFICATION_TYPE = U
NORAD_CAT_ID   = 65930
ELEMENT_SET_NO = 999
REV_AT_EPOCH   = 443
BSTAR          = -.25098485E-1
MEAN_MOTION_DOT = -.1977999E-1
MEAN_MOTION_DDOT = 0

CCSDS_OMM_VERS = 2.0
CREATION_DATE  = 
ORIGINATOR     = 

OBJECT_NAME    = STARLINK-35526
OBJECT_ID      = 2025-225X
CENTER_NAME    = EARTH
REF_FRAME      = TEME
TIME_SYSTEM    = UTC
MEAN_ELEMENT_THEORY = SGP/SGP4

EPOCH          = 2025-10-30T06:00:02.000160
MEAN_MOTION    = 15.62177412
ECCENTRICITY   = .0001315
INCLINATION    = 53.1592
RA_OF_ASC_NODE = 54.3475
ARG_OF_PERICENTER = 81.8343
MEAN_ANOMALY   = 73.7311

EPHEMERIS_TYPE = 0
CLASSIFICATION_TYPE = U
NORAD_CAT_ID   = 65931
ELEMENT_SET_NO = 999
REV_AT_EPOCH   = 443
BSTAR          = -.25038023E-1
MEAN_MOTION_DOT = -.1973758E-1
MEAN_MOTION_DDOT = 0

CCSDS_OMM_VERS = 2.0
CREATION_DATE  = 
ORIGINATOR     = 

OBJECT_NAME    = STARLINK-35436
OBJECT_ID      = 2025-225Y
CENTER_NAME    = EARTH
REF_FRAME      = TEME
TIME_SYSTEM    = UTC
MEAN_ELEMENT_THEORY = SGP/SGP4

EPOCH          = 2025-10-30T06:00:02.000160
MEAN_MOTION    = 15.62178299
ECCENTRICITY   = .00012295
INCLINATION    = 53.1592
RA_OF_ASC_NODE = 54.3442
ARG_OF_PERICENTER = 74.4866
MEAN_ANOMALY   = 82.9938

EPHEMERIS_TYPE = 0
CLASSIFICATION_TYPE = U
NORAD_CAT_ID   = 65932
ELEMENT_SET_NO = 999
REV_AT_EPOCH   = 443
BSTAR          = -.25048041E-1
MEAN_MOTION_DOT = -.1974451E-1
MEAN_MOTION_DDOT = 0

CCSDS_OMM_VERS = 2.0
CREATION_DATE  = 
ORIGINATOR     = 

OBJECT_NAME    = STARLINK-35192
OBJECT_ID      = 2025-225Z
CENTER_NAME    = EARTH
REF_FRAME      = TEME
TIME_SYSTEM    = UTC
MEAN_ELEMENT_THEORY = SGP/SGP4

EPOCH          = 2025-10-30T06:00:02.000160
MEAN_MOTION    = 15.62181836
ECCENTRICITY   = .0001217
INCLINATION    = 53.1591
RA_OF_ASC_NODE = 54.3318
ARG_OF_PERICENTER = 85.9225
MEAN_ANOMALY   = 77.3085

EPHEMERIS_TYPE = 0
CLASSIFICATION_TYPE = U
NORAD_CAT_ID   = 65933
ELEMENT_SET_NO = 999
REV_AT_EPOCH   = 444
BSTAR          = -.25125599E-1
MEAN_MOTION_DOT = -.1980054E-1
MEAN_MOTION_DDOT = 0

CCSDS_OMM_VERS = 2.0
CREATION_DATE  = 
ORIGINATOR     = 

OBJECT_NAME    = STARLINK-33921
OBJECT_ID      = 2025-225AA
CENTER_NAME    = EARTH
REF_FRAME      = TEME
TIME_SYSTEM    = UTC
MEAN_ELEMENT_THEORY = SGP/SGP4

EPOCH          = 2025-10-30T06:00:02.000160
MEAN_MOTION    = 15.62177652
ECCENTRICITY   = .00012743
INCLINATION    = 53.1590
RA_OF_ASC_NODE = 54.3402
ARG_OF_PERICENTER = 78.0383
MEAN_ANOMALY   = 81.3600

EPHEMERIS_TYPE = 0
CLASSIFICATION_TYPE = U
NORAD_CAT_ID   = 65934
ELEMENT_SET_NO = 999
REV_AT_EPOCH   = 442
BSTAR          = -.25041002E-1
MEAN_MOTION_DOT = -.1973952E-1
MEAN_MOTION_DDOT = 0

CCSDS_OMM_VERS = 2.0
CREATION_DATE  = 
ORIGINATOR     = 

OBJECT_NAME    = STARLINK-35155
OBJECT_ID      = 2025-225AB
CENTER_NAME    = EARTH
REF_FRAME      = TEME
TIME_SYSTEM    = UTC
MEAN_ELEMENT_THEORY = SGP/SGP4

EPOCH          = 2025-10-30T06:00:02.000160
MEAN_MOTION    = 15.62180902
ECCENTRICITY   = .00011971
INCLINATION    = 53.1590
RA_OF_ASC_NODE = 54.3360
ARG_OF_PERICENTER = 79.6380
MEAN_ANOMALY   = 81.6754

EPHEMERIS_TYPE = 0
CLASSIFICATION_TYPE = U
NORAD_CAT_ID   = 65935
ELEMENT_SET_NO = 999
REV_AT_EPOCH   = 442
BSTAR          = -.25103686E-1
MEAN_MOTION_DOT = -.1978459E-1
MEAN_MOTION_DDOT = 0

CCSDS_OMM_VERS = 2.0
CREATION_DATE  = 
ORIGINATOR     = 

OBJECT_NAME    = STARLINK-35161
OBJECT_ID      = 2025-225AC
CENTER_NAME    = EARTH
REF_FRAME      = TEME
TIME_SYSTEM    = UTC
MEAN_ELEMENT_THEORY = SGP/SGP4

EPOCH          = 2025-10-30T06:00:02.000160
MEAN_MOTION    = 15.62178874
ECCENTRICITY   = .00012093
INCLINATION    = 53.1592
RA_OF_ASC_NODE = 54.3284
ARG_OF_PERICENTER = 78.4635
MEAN_ANOMALY   = 86.6856

EPHEMERIS_TYPE = 0
CLASSIFICATION_TYPE = U
NORAD_CAT_ID   = 65936
ELEMENT_SET_NO = 999
REV_AT_EPOCH   = 444
BSTAR          = -.2508632E-1
MEAN_MOTION_DOT = -.1977127E-1
MEAN_MOTION_DDOT = 0

CCSDS_OMM_VERS = 2.0
CREATION_DATE  = 
ORIGINATOR     = 

OBJECT_NAME    = STARLINK-35473
OBJECT_ID      = 2025-225AD
CENTER_NAME    = EARTH
REF_FRAME      = TEME
TIME_SYSTEM    = UTC
MEAN_ELEMENT_THEORY = SGP/SGP4

EPOCH          = 2025-10-30T06:00:02.000160
MEAN_MOTION    = 15.62181650
ECCENTRICITY   = .00012076
INCLINATION    = 53.1591
RA_OF_ASC_NODE = 54.3248
ARG_OF_PERICENTER = 87.2816
MEAN_ANOMALY   = 79.7834

EPHEMERIS_TYPE = 0
CLASSIFICATION_TYPE = U
NORAD_CAT_ID   = 65937
ELEMENT_SET_NO = 999
REV_AT_EPOCH   = 444
BSTAR          = -.25121695E-1
MEAN_MOTION_DOT = -.1979764E-1
MEAN_MOTION_DDOT = 0

